STARLINK-35815          
1 66577U 25268W   25355.16668980  .00108342  00000+0  14835-2 0  9998
2 66577  43.0010  71.7630 0001676 253.1719 203.2345 15.56315768  6027
STARLINK-35743          
1 66578U 25268X   25353.54286219  .00144840  00000+0  24134-2 0  9996
2 66578  42.9979  81.3160 0000651 284.5171  75.5617 15.50763067  5683
STARLINK-35868          
1 66579U 25268Y   25355.16668980  .00113823  00000+0  15573-2 0  9990
2 66579  43.0009  71.7535 0001681 255.5175 204.7167 15.56314514  6025
STARLINK-35872          
1 66580U 25268Z   25353.60656196  .00165853  00000+0  27444-2 0  9995
2 66580  42.9993  80.9317 0002511 162.1716 197.9233 15.50873267  5692
STARLINK-35744          
1 66581U 25268AA  25355.16668980  .00108450  00000+0  14849-2 0  9998
2 66581  43.0000  71.7436 0001679 260.1843 203.8941 15.56315533  5975
STARLINK-35746          
1 66582U 25268AB  25355.16668980  .00108365  00000+0  14838-2 0  9992
2 66582  43.0003  71.7388 0001736 259.6178 206.3724 15.56316366  6022
STARLINK-35941          
1 66583U 25268AC  25355.14918061  .00164094  00000+0  22223-2 0  9997
2 66583  43.0014  71.8666 0002025 224.2672 135.8029 15.56390747  5932
STARLINK-35939          
1 66584U 25268AD  25353.60518367  .00076356  00000+0  12867-2 0  9998
2 66584  42.9992  80.9182 0002615 187.8218 172.2602 15.50751867  5698
STARLINK-35963          
1 66585U 25268AE  25355.16668980 -.01065724  00000+0 -15965-1 0  9990
2 66585  43.0004  71.7279 0001328 266.7239 204.7866 15.56743586  6026
TJS-21                  
1 66586U 25269A   25352.70706567  .00001084  00000+0 -59507-1 0  9990
2 66586  63.2733 161.7218 6806869 269.7428  18.6663  2.00580748   558
CZ-3B R/B               
1 66587U 25269B   25352.18178135  .00088610 -14474-5  58948-3 0  9993
2 66587  51.3412 168.3764 7516645 229.6756  36.1575  2.04054650   560
STARLINK-36076          
1 66588U 25270A   25354.77630141  .00033431  00000+0  80389-3 0  9991
2 66588  42.9999 146.4710 0002288 264.7414  95.3181 15.40705129  5587
