CCSDS_OMM_VERS = 2.0
CREATION_DATE  = 
ORIGINATOR     = 

OBJECT_NAME    = STARLINK-35815
OBJECT_ID      = 2025-268W
CENTER_NAME    = EARTH
REF_FRAME      = TEME
TIME_SYSTEM    = UTC
MEAN_ELEMENT_THEORY = SGP/SGP4

EPOCH          = 2025-12-21T04:00:01.998720
MEAN_MOTION    = 15.56315768
ECCENTRICITY   = .0001676
INCLINATION    = 43.0010
RA_OF_ASC_NODE = 71.7630
ARG_OF_PERICENTER = 253.1719
MEAN_ANOMALY   = 203.2345

EPHEMERIS_TYPE = 0
CLASSIFICATION_TYPE = U
NORAD_CAT_ID   = 66577
ELEMENT_SET_NO = 999
REV_AT_EPOCH   = 602
BSTAR          = .14835E-2
MEAN_MOTION_DOT = .108342E-2
MEAN_MOTION_DDOT = 0

CCSDS_OMM_VERS = 2.0
CREATION_DATE  = 
ORIGINATOR     = 

OBJECT_NAME    = STARLINK-35743
OBJECT_ID      = 2025-268X
CENTER_NAME    = EARTH
REF_FRAME      = TEME
TIME_SYSTEM    = UTC
MEAN_ELEMENT_THEORY = SGP/SGP4

EPOCH          = 2025-12-19T13:01:43.293216
MEAN_MOTION    = 15.50763067
ECCENTRICITY   = .0000651
INCLINATION    = 42.9979
RA_OF_ASC_NODE = 81.3160
ARG_OF_PERICENTER = 284.5171
MEAN_ANOMALY   = 75.5617

EPHEMERIS_TYPE = 0
CLASSIFICATION_TYPE = U
NORAD_CAT_ID   = 66578
ELEMENT_SET_NO = 999
REV_AT_EPOCH   = 568
BSTAR          = .24134E-2
MEAN_MOTION_DOT = .14484E-2
MEAN_MOTION_DDOT = 0

CCSDS_OMM_VERS = 2.0
CREATION_DATE  = 
ORIGINATOR     = 

OBJECT_NAME    = STARLINK-35868
OBJECT_ID      = 2025-268Y
CENTER_NAME    = EARTH
REF_FRAME      = TEME
TIME_SYSTEM    = UTC
MEAN_ELEMENT_THEORY = SGP/SGP4

EPOCH          = 2025-12-21T04:00:01.998720
MEAN_MOTION    = 15.56314514
ECCENTRICITY   = .0001681
INCLINATION    = 43.0009
RA_OF_ASC_NODE = 71.7535
ARG_OF_PERICENTER = 255.5175
MEAN_ANOMALY   = 204.7167

EPHEMERIS_TYPE = 0
CLASSIFICATION_TYPE = U
NORAD_CAT_ID   = 66579
ELEMENT_SET_NO = 999
REV_AT_EPOCH   = 602
BSTAR          = .15573E-2
MEAN_MOTION_DOT = .113823E-2
MEAN_MOTION_DDOT = 0

CCSDS_OMM_VERS = 2.0
CREATION_DATE  = 
ORIGINATOR     = 

OBJECT_NAME    = STARLINK-35872
OBJECT_ID      = 2025-268Z
CENTER_NAME    = EARTH
REF_FRAME      = TEME
TIME_SYSTEM    = UTC
MEAN_ELEMENT_THEORY = SGP/SGP4

EPOCH          = 2025-12-19T14:33:26.953344
MEAN_MOTION    = 15.50873267
ECCENTRICITY   = .0002511
INCLINATION    = 42.9993
RA_OF_ASC_NODE = 80.9317
ARG_OF_PERICENTER = 162.1716
MEAN_ANOMALY   = 197.9233

EPHEMERIS_TYPE = 0
CLASSIFICATION_TYPE = U
NORAD_CAT_ID   = 66580
ELEMENT_SET_NO = 999
REV_AT_EPOCH   = 569
BSTAR          = .27444E-2
MEAN_MOTION_DOT = .165853E-2
MEAN_MOTION_DDOT = 0

CCSDS_OMM_VERS = 2.0
CREATION_DATE  = 
ORIGINATOR     = 

OBJECT_NAME    = STARLINK-35744
OBJECT_ID      = 2025-268AA
CENTER_NAME    = EARTH
REF_FRAME      = TEME
TIME_SYSTEM    = UTC
MEAN_ELEMENT_THEORY = SGP/SGP4

EPOCH          = 2025-12-21T04:00:01.998720
MEAN_MOTION    = 15.56315533
ECCENTRICITY   = .0001679
INCLINATION    = 43.0000
RA_OF_ASC_NODE = 71.7436
ARG_OF_PERICENTER = 260.1843
MEAN_ANOMALY   = 203.8941

EPHEMERIS_TYPE = 0
CLASSIFICATION_TYPE = U
NORAD_CAT_ID   = 66581
ELEMENT_SET_NO = 999
REV_AT_EPOCH   = 597
BSTAR          = .14849E-2
MEAN_MOTION_DOT = .10845E-2
MEAN_MOTION_DDOT = 0

CCSDS_OMM_VERS = 2.0
CREATION_DATE  = 
ORIGINATOR     = 

OBJECT_NAME    = STARLINK-35746
OBJECT_ID      = 2025-268AB
CENTER_NAME    = EARTH
REF_FRAME      = TEME
TIME_SYSTEM    = UTC
MEAN_ELEMENT_THEORY = SGP/SGP4

EPOCH          = 2025-12-21T04:00:01.998720
MEAN_MOTION    = 15.56316366
ECCENTRICITY   = .0001736
INCLINATION    = 43.0003
RA_OF_ASC_NODE = 71.7388
ARG_OF_PERICENTER = 259.6178
MEAN_ANOMALY   = 206.3724

EPHEMERIS_TYPE = 0
CLASSIFICATION_TYPE = U
NORAD_CAT_ID   = 66582
ELEMENT_SET_NO = 999
REV_AT_EPOCH   = 602
BSTAR          = .14838E-2
MEAN_MOTION_DOT = .108365E-2
MEAN_MOTION_DDOT = 0

CCSDS_OMM_VERS = 2.0
CREATION_DATE  = 
ORIGINATOR     = 

OBJECT_NAME    = STARLINK-35941
OBJECT_ID      = 2025-268AC
CENTER_NAME    = EARTH
REF_FRAME      = TEME
TIME_SYSTEM    = UTC
MEAN_ELEMENT_THEORY = SGP/SGP4

EPOCH          = 2025-12-21T03:34:49.204704
MEAN_MOTION    = 15.56390747
ECCENTRICITY   = .0002025
INCLINATION    = 43.0014
RA_OF_ASC_NODE = 71.8666
ARG_OF_PERICENTER = 224.2672
MEAN_ANOMALY   = 135.8029

EPHEMERIS_TYPE = 0
CLASSIFICATION_TYPE = U
NORAD_CAT_ID   = 66583
ELEMENT_SET_NO = 999
REV_AT_EPOCH   = 593
BSTAR          = .22223E-2
MEAN_MOTION_DOT = .164094E-2
MEAN_MOTION_DDOT = 0

CCSDS_OMM_VERS = 2.0
CREATION_DATE  = 
ORIGINATOR     = 

OBJECT_NAME    = STARLINK-35939
OBJECT_ID      = 2025-268AD
CENTER_NAME    = EARTH
REF_FRAME      = TEME
TIME_SYSTEM    = UTC
MEAN_ELEMENT_THEORY = SGP/SGP4

EPOCH          = 2025-12-19T14:31:27.869088
MEAN_MOTION    = 15.50751867
ECCENTRICITY   = .0002615
INCLINATION    = 42.9992
RA_OF_ASC_NODE = 80.9182
ARG_OF_PERICENTER = 187.8218
MEAN_ANOMALY   = 172.2602

EPHEMERIS_TYPE = 0
CLASSIFICATION_TYPE = U
NORAD_CAT_ID   = 66584
ELEMENT_SET_NO = 999
REV_AT_EPOCH   = 569
BSTAR          = .12867E-2
MEAN_MOTION_DOT = .76356E-3
MEAN_MOTION_DDOT = 0

CCSDS_OMM_VERS = 2.0
CREATION_DATE  = 
ORIGINATOR     = 

OBJECT_NAME    = STARLINK-35963
OBJECT_ID      = 2025-268AE
CENTER_NAME    = EARTH
REF_FRAME      = TEME
TIME_SYSTEM    = UTC
MEAN_ELEMENT_THEORY = SGP/SGP4

EPOCH          = 2025-12-21T04:00:01.998720
MEAN_MOTION    = 15.56743586
ECCENTRICITY   = .0001328
INCLINATION    = 43.0004
RA_OF_ASC_NODE = 71.7279
ARG_OF_PERICENTER = 266.7239
MEAN_ANOMALY   = 204.7866

EPHEMERIS_TYPE = 0
CLASSIFICATION_TYPE = U
NORAD_CAT_ID   = 66585
ELEMENT_SET_NO = 999
REV_AT_EPOCH   = 602
BSTAR          = -.15965E-1
MEAN_MOTION_DOT = -.1065724E-1
MEAN_MOTION_DDOT = 0

CCSDS_OMM_VERS = 2.0
CREATION_DATE  = 
ORIGINATOR     = 

OBJECT_NAME    = TJS-21
OBJECT_ID      = 2025-269A
CENTER_NAME    = EARTH
REF_FRAME      = TEME
TIME_SYSTEM    = UTC
MEAN_ELEMENT_THEORY = SGP/SGP4

EPOCH          = 2025-12-18T16:58:10.473888
MEAN_MOTION    = 2.00580748
ECCENTRICITY   = .6806869
INCLINATION    = 63.2733
RA_OF_ASC_NODE = 161.7218
ARG_OF_PERICENTER = 269.7428
MEAN_ANOMALY   = 18.6663

EPHEMERIS_TYPE = 0
CLASSIFICATION_TYPE = U
NORAD_CAT_ID   = 66586
ELEMENT_SET_NO = 999
REV_AT_EPOCH   = 55
BSTAR          = -.59507049E-1
MEAN_MOTION_DOT = .1084E-4
MEAN_MOTION_DDOT = 0

CCSDS_OMM_VERS = 2.0
CREATION_DATE  = 
ORIGINATOR     = 

OBJECT_NAME    = CZ-3B R/B
OBJECT_ID      = 2025-269B
CENTER_NAME    = EARTH
REF_FRAME      = TEME
TIME_SYSTEM    = UTC
MEAN_ELEMENT_THEORY = SGP/SGP4

EPOCH          = 2025-12-18T04:21:45.908640
MEAN_MOTION    = 2.04054650
ECCENTRICITY   = .75166459
INCLINATION    = 51.3412
RA_OF_ASC_NODE = 168.3764
ARG_OF_PERICENTER = 229.6756
MEAN_ANOMALY   = 36.1575

EPHEMERIS_TYPE = 0
CLASSIFICATION_TYPE = U
NORAD_CAT_ID   = 66587
ELEMENT_SET_NO = 999
REV_AT_EPOCH   = 56
BSTAR          = .58948144E-3
MEAN_MOTION_DOT = .8861E-3
MEAN_MOTION_DDOT = -.1447425E-5

CCSDS_OMM_VERS = 2.0
CREATION_DATE  = 
ORIGINATOR     = 

OBJECT_NAME    = STARLINK-36076
OBJECT_ID      = 2025-270A
CENTER_NAME    = EARTH
REF_FRAME      = TEME
TIME_SYSTEM    = UTC
MEAN_ELEMENT_THEORY = SGP/SGP4

EPOCH          = 2025-12-20T18:37:52.441824
MEAN_MOTION    = 15.40705129
ECCENTRICITY   = .00022885
INCLINATION    = 42.9999
RA_OF_ASC_NODE = 146.4710
ARG_OF_PERICENTER = 264.7414
MEAN_ANOMALY   = 95.3181

EPHEMERIS_TYPE = 0
CLASSIFICATION_TYPE = U
NORAD_CAT_ID   = 66588
ELEMENT_SET_NO = 999
REV_AT_EPOCH   = 558
BSTAR          = .80388566E-3
MEAN_MOTION_DOT = .33431E-3
MEAN_MOTION_DDOT = 0

